ORBCOMM FM41 [-]        
1 33061U 08031B   17345.96333150 -.00000032  00000-0  26074-4 0  9994
2 33061  48.4477 305.8611 0005607 219.8048 183.9362 14.73228635509246
